STARLINK-5307           
1 55658U 23021AG  26068.75231260 -.00000224  00000+0 -10970-4 0  9995
2 55658  70.0011 184.1828 0003547 269.3273  90.7479 14.98334081168803
ION SCV-021             
1 67483U 25276DT  26068.74606001  .00002399  00000+0  21145-3 0  9994
2 67483  97.5322 142.8125 0013138  96.8695 263.4023 14.97286526  7726
